{"spkid": "20509456", "covariance": {"epoch": "2456674.5", "labels": ["e", "q", "tp", "node", "peri", "i"], "data": [["1.273191996743253E-14", "-2.193014160032407E-14", "-4.702064598746474E-12", "2.104020122302322E-12", "-6.284096545829398E-12", "2.866201563836401E-13"], ["-2.193014160032407E-14", "3.778223224089791E-14", "8.154397296675554E-12", "-3.594517899519754E-12", "1.082367878027565E-11", "-4.960351955992147E-13"], ["-4.702064598746474E-12", "8.154397296675554E-12", "2.167791862614201E-9", "-4.799458523427225E-10", "2.296854697120129E-9", "-1.185041677223111E-10"], ["2.104020122302322E-12", "-3.594517899519754E-12", "-4.799458523427225E-10", "1.235366057154342E-9", "-1.68493728652333E-9", "1.644129894924043E-10"], ["-6.284096545829398E-12", "1.082367878027565E-11", "2.296854697120129E-9", "-1.68493728652333E-9", "3.706607566443271E-9", "-2.615997426360022E-10"], ["2.866201563836401E-13", "-4.960351955992147E-13", "-1.185041677223111E-10", "1.644129894924043E-10", "-2.615997426360022E-10", "4.825929091662333E-11"]], "elements": [{"label": "e", "units": null, "title": "eccentricity", "value": ".4196900486158202", "sigma": 1.12835809774347e-07, "name": "e"}, {"name": "q", "sigma": 1.94376521835581e-07, "value": ".9764235257046728", "title": "perihelion distance", "units": "au", "label": "q"}, {"label": "tp", "units": "TDB", "title": "time of perihelion passage", "value": "2456615.552700408203", "sigma": 4.65595517870845e-05, "name": "tp"}, {"units": "deg", "value": "239.4875027218536", "title": "longitude of the ascending node", "sigma": 3.51477745690156e-05, "name": "om", "label": "node"}, {"label": "peri", "value": "333.7137710281273", "title": "argument of perihelion", "units": "deg", "sigma": 6.08819149373874e-05, "name": "w"}, {"name": "i", "sigma": 6.94689073734598e-06, "units": "deg", "title": "inclination", "value": "6.984813780430599", "label": "i"}]}, "elements": [{"label": "e", "sigma": "1.125E-7", "name": "e", "title": "eccentricity", "value": ".4197211506066338", "units": null}, {"units": "au", "title": "semi-major axis", "value": "1.682459746256516", "sigma": "8.5336E-9", "name": "a", "label": "a"}, {"name": "q", "sigma": "1.9349E-7", "units": "au", "title": "perihelion distance", "value": ".9762958057083858", "label": "q"}, {"label": "i", "value": "6.993253987020462", "title": "inclination; angle with respect to x-y ecliptic plane", "units": "deg", "name": "i", "sigma": "6.9561E-6"}, {"label": "node", "value": "239.3870487600075", "title": "longitude of the ascending node", "units": "deg", "sigma": "3.5071E-5", "name": "om"}, {"sigma": "6.0772E-5", "name": "w", "units": "deg", "title": "argument of perihelion", "value": "333.8838449404496", "label": "peri"}, {"units": "deg", "value": "270.5072006864062", "title": "mean anomaly", "sigma": "3.7142E-5", "name": "ma", "label": "M"}, {"label": "tp", "value": "2461398.653178220967", "title": "time of perihelion passage", "units": "TDB", "name": "tp", "sigma": "8.3736E-5"}, {"sigma": "6.0645E-6", "name": "per", "value": "797.1048476155152", "title": "sidereal orbital period", "units": "d", "label": "period"}, {"label": "n", "units": "deg/d", "value": ".4516344381506592", "title": "mean motion", "sigma": "3.4361E-9", "name": "n"}, {"label": "Q", "value": "2.388623686804646", "title": "aphelion distance", "units": "au", "sigma": "1.2115E-8", "name": "ad"}], "epoch": "2461200.5"}